OSCAR 7 (AO-7)          
1 07530U 74089B   17224.89768083 -.00000029  00000-0  94808-4 0  9993
2 07530 101.6355 192.4765 0011695 210.9958 213.2717 12.53628152955735
UOSAT 2 (UO-11)         
1 14781U 84021B   17224.91532519  .00000067  00000-0  14513-4 0  9998
2 14781  97.6925 268.5256 0008974  23.7185 336.4441 14.82916561777750
LUSAT (LO-19)           
1 20442U 90005G   17225.19541064 -.00000003  00000-0  14904-4 0  9999
2 20442  98.5770 161.1363 0011500 345.4680  14.6172 14.32866372439782
EYESAT-1 (AO-27)        
1 22825U 93061C   17225.14802005 -.00000006  00000-0  15358-4 0  9998
2 22825  98.8173 191.4457 0008711 158.0657 202.0899 14.30002530245545
ITAMSAT (IO-26)         
1 22826U 93061D   17224.95613028  .00000005  00000-0  19524-4 0  9999
2 22826  98.8115 191.3267 0009385 149.7031 210.4695 14.30331807245696
RADIO ROSTO (RS-15)     
1 23439U 94085A   17224.95494214 -.00000034  00000-0  24176-3 0  9992
2 23439  64.8168 127.3528 0166087 236.0367 200.9478 11.27566562931812
JAS-2 (FO-29)           
1 24278U 96046B   17224.87973910 -.00000019  00000-0  16886-4 0  9992
2 24278  98.5550 100.5763 0350196 190.3457 169.0343 13.53077182 36295
TECHSAT 1B (GO-32)      
1 25397U 98043D   17224.84304425 -.00000005  00000-0  16814-4 0  9996
2 25397  98.6122 165.9940 0001417 144.8127 215.3146 14.23626190991858
ISS (ZARYA)             
1 25544U 98067A   17225.22514198  .00001969  00000-0  36984-4 0  9998
2 25544  51.6412 113.9852 0005698 131.9846  13.3507 15.54146830 70621
PCSAT (NO-44)           
1 26931U 01043C   17224.67145263 -.00000034  00000-0  18710-4 0  9998
2 26931  67.0521 305.4592 0007153 258.4016 101.6282 14.30468935828353
SAUDISAT 1C (SO-50)     
1 27607U 02058C   17225.21332010 -.00000022  00000-0  17158-4 0  9997
2 27607  64.5566 311.2992 0030707  67.2463 293.1879 14.75346729787524
CUTE-1 (CO-55)          
1 27844U 03031E   17224.92682255  .00000034  00000-0  35143-4 0  9994
2 27844  98.6897 233.1079 0009728 176.2746 183.8505 14.22051823732345
CUBESAT XI-IV (CO-57)   
1 27848U 03031J   17224.94198786  .00000022  00000-0  29837-4 0  9991
2 27848  98.6989 233.4057 0009453 185.8501 174.2567 14.21664902732237
MOZHAYETS 4 (RS-22)     
1 27939U 03042A   17225.22496688  .00000063  00000-0  19708-4 0  9999
2 27939  97.9472   8.1516 0013996  49.7346  71.4235 14.66585341741672
CUBESAT XI-V (CO-58)    
1 28895U 05043F   17224.92436553  .00000117  00000-0  31393-4 0  9999
2 28895  97.8712  24.6200 0016021 328.4581  31.5660 14.63419048628550
CUTE-1.7+APD II (CO-65) 
1 32785U 08021C   17224.80009350  .00000196  00000-0  26991-4 0  9994
2 32785  97.5643 246.4811 0012694 348.0009  12.0904 14.87921107503243
DELFI-C3 (DO-64)        
1 32789U 08021G   17225.13892509  .00000592  00000-0  45940-4 0  9996
2 32789  97.5549 282.1623 0010955 266.9567  93.0406 15.05024746505438
SEEDS II (CO-66)        
1 32791U 08021J   17225.04829121  .00000225  00000-0  28594-4 0  9998
2 32791  97.5605 251.2573 0012532 330.2782  29.7723 14.90268065503615
YUBILEINY (RS-30)       
1 32953U 08025A   17225.02506764  .00000017  00000-0  51379-4 0  9991
2 32953  82.5018 204.3082 0019273 157.3166 202.8769 12.43078451418482
PRISM (HITOMI)          
1 33493U 09002B   17225.22842477  .00000542  00000-0  54342-4 0  9999
2 33493  98.1606 110.0492 0014066 254.3294 105.6387 14.95738389464301
KKS-1 (KISEKI)          
1 33499U 09002H   17225.18827609  .00000076  00000-0  19373-4 0  9997
2 33499  98.3378  32.2571 0009033 184.8914 175.2207 14.75209368459768
SWISSCUBE               
1 35932U 09051B   17224.89909388  .00000118  00000-0  37753-4 0  9996
2 35932  98.5036   4.4420 0008883  79.9266 280.2933 14.56034359418533
BEESAT                  
1 35933U 09051C   17224.94952695  .00000089  00000-0  31146-4 0  9999
2 35933  98.5074   5.8409 0007113  91.2229 268.9783 14.56151605418607
ITUPSAT 1               
1 35935U 09051E   17224.90033006  .00000093  00000-0  32554-4 0  9992
2 35935  98.5184   6.0447 0009427  85.6559 274.5715 14.55343457418457
XIWANG-1 (HOPE-1)       
1 36122U 09072B   17225.19198477 -.00000048  00000-0 -14568-4 0  9997
2 36122 100.0977 248.9807 0008234 102.7056 257.4979 13.16340537368133
TISAT 1                 
1 36799U 10035E   17224.87421026  .00000350  00000-0  41949-4 0  9998
2 36799  98.0683 348.7706 0013497 136.7037 223.5243 14.90443605384020
JUGNU                   
1 37839U 11058B   17224.94669507  .00000309  00000-0  22787-4 0  9999
2 37839  19.9614 106.3179 0019028  89.2714  19.0789 14.12589100301627
SRMSAT                  
1 37841U 11058D   17224.94129200  .00000294  00000-0  16503-4 0  9995
2 37841  19.9713 149.2022 0011711 345.3976  82.9806 14.10580072301211
M-CUBED & EXP-1 PRIME   
1 37855U 11061F   17224.70756249  .00000584  00000-0  39007-4 0  9993
2 37855 101.7085 124.8445 0179911 274.5716  83.4965 15.03219599314816
HORYU 2                 
1 38340U 12025D   17224.92125985  .00000169  00000-0  33059-4 0  9995
2 38340  98.3773 230.8442 0012939 109.4282 250.8326 14.75367743271249
STRAND-1                
1 39090U 13009E   17225.19886670 -.00000002  00000-0  14833-4 0  9992
2 39090  98.5499  70.0887 0010103 126.5576 233.6540 14.34977285233656
SOMP                    
1 39134U 13015E   17224.94526320  .00001060  00000-0  61023-4 0  9990
2 39134  64.8635  43.2340 0038531 254.7701 104.9164 15.17938854238094
BEESAT-2                
1 39136U 13015G   17224.94032707  .00000807  00000-0  52683-4 0  9993
2 39136  64.8697  54.7378 0033851 274.1711  85.5546 15.15203657237483
CUBEBUG-1 (CAPITAN BETO)
1 39153U 13018D   17225.21403068  .00000161  00000-0  28178-4 0  9993
2 39153  97.9862 317.2094 0016150 220.0978 139.9042 14.80204735232022
ZACUBE-1 (TSHEPISOSAT)  
1 39417U 13066B   17224.85665430  .00000186  00000-0  29968-4 0  9996
2 39417  97.6251 264.3383 0060891  84.8638 275.9521 14.80738607201161
TRITON-1                
1 39427U 13066M   17224.92084534  .00000139  00000-0  30096-4 0  9997
2 39427  97.6374 236.4765 0114700 166.2788 194.1581 14.67484763199173
GOMX 1                  
1 39430U 13066Q   17225.09887519  .00000158  00000-0  37893-4 0  9997
2 39430  97.6674 219.8056 0150762 222.9152 136.0206 14.58895587198225
HUMSAT-D                
1 39433U 13066T   17225.14684824  .00000265  00000-0  31820-4 0  9993
2 39433  97.6480 286.5724 0031824  30.4857 329.8204 14.91488186202504
EAGLE 2                 
1 39436U 13066W   17224.79305127  .00020951  00000-0  54073-3 0  9990
2 39436  97.7111 333.5914 0009830 233.0095 127.0250 15.39138955204207
CUBEBUG-2 (LO-74)       
1 39440U 13066AA  17224.73632391  .00000185  00000-0  32725-4 0  9993
2 39440  97.6256 252.9597 0082213 116.5025 244.4646 14.75478453200439
FUNCUBE-1 (AO-73)       
1 39444U 13066AE  17225.07834593  .00000245  00000-0  36721-4 0  9990
2 39444  97.6266 265.6760 0060049  80.8224 279.9776 14.81478361200032
UWE-3                   
1 39446U 13066AG  17225.08416344  .00000182  00000-0  30893-4 0  9997
2 39446  97.6241 258.6198 0072024 100.0125 260.9224 14.78011966199603
SPROUT                  
1 39770U 14029E   17225.18694529  .00000602  00000-0  74503-4 0  9994
2 39770  97.8755 324.0069 0010382 135.1482 225.0583 14.86309608174609
UNISAT-6                
1 40012U 14033C   17224.90040877  .00000163  00000-0  31933-4 0  9992
2 40012  97.8490 106.8308 0059961 111.1060 249.6573 14.73643547169299
DUCHIFAT-1              
1 40021U 14033M   17224.71236635  .00000420  00000-0  49528-4 0  9995
2 40021  97.9150 137.9534 0014394 112.0523 248.2224 14.89936287171018
FUNCUBE-3 (EO-79)       
1 40025U 14033R   17225.22056622  .00000247  00000-0  32671-4 0  9990
2 40025  97.9086 136.2158 0013887 114.6521 245.6143 14.88453252170976
CHUBUSAT-1              
1 40300U 14070C   17225.12657764  .00000590  00000-0  29681-4 0  9998
2 40300  97.3940 303.9766 0018879 262.1163 158.0309 15.20940475153449
NUDT-PHONESAT           
1 40900U 15049B   17225.06903967  .00001972  00000-0  95561-4 0  9998
2 40900  97.4434 232.1912 0014966  33.7297 326.4887 15.19621275105095
ZDPS 2A                 
1 40901U 15049C   17225.18712725  .00000891  00000-0  49297-4 0  9996
2 40901  97.4585 231.5207 0014907  34.3840 325.8354 15.16325233104979
ZDPS 2B                 
1 40902U 15049D   17225.18860303  .00000837  00000-0  46745-4 0  9998
2 40902  97.4458 230.0904 0014868  31.6922 328.5203 15.16162763104963
XW-2A                   
1 40903U 15049E   17225.21433998  .00001888  00000-0  50995-4 0  9998
2 40903  97.4186 251.6174 0016416  63.9822 296.3111 15.38954260106415
KAITUO 1A               
1 40904U 15049F   17225.05747846  .00000372  00000-0  23661-4 0  9998
2 40904  97.4547 229.5838 0015930  31.2559  53.2290 15.14573365104854
2015-049G               
1 40905U 15049G   17225.18781666  .00000386  00000-0  25043-4 0  9992
2 40905  97.4520 228.3352 0016533  22.1961 337.9983 15.13592011104826
XW-2C                   
1 40906U 15049H   17225.19083098  .00000643  00000-0  38268-4 0  9997
2 40906  97.4557 229.5455 0015867  23.4762 336.7191 15.14613025104868
XW-2D                   
1 40907U 15049J   17225.17025190  .00000689  00000-0  40647-4 0  9999
2 40907  97.4527 229.2741 0015188  22.0184 338.1697 15.14722101104863
LILACSAT 2              
1 40908U 15049K   17225.22509236  .00000401  00000-0  26184-4 0  9996
2 40908  97.4630 229.0492 0016695  19.8564 340.3313 15.13165601104797
XW-2F                   
1 40910U 15049M   17225.20483908  .00001061  00000-0  59145-4 0  9990
2 40910  97.4546 230.0831 0015933  19.2039 340.9791 15.15639565104782
XW-2B                   
1 40911U 15049N   17225.17779058  .00000673  00000-0  39819-4 0  9995
2 40911  97.4570 229.6862 0015085  22.4069 337.7819 15.14682596104769
KAITUO 1B               
1 40912U 15049P   17224.98009563  .00000963  00000-0  50930-4 0  9990
2 40912  97.4517 231.8647 0015915  11.6852  43.7898 15.17751821104907
